OBJECT_NAME,OBJECT_ID,EPOCH,MEAN_MOTION,ECCENTRICITY,INCLINATION,RA_OF_ASC_NODE,ARG_OF_PERICENTER,MEAN_ANOMALY,EPHEMERIS_TYPE,CLASSIFICATION_TYPE,NORAD_CAT_ID,ELEMENT_SET_NO,REV_AT_EPOCH,BSTAR,MEAN_MOTION_DOT,MEAN_MOTION_DDOT
SKYSAT-A,2013-066C,2024-01-20T03:50:39.320448,15.03677684,.0028093,97.5108,84.9055,92.0107,268.4336,0,U,39418,999,55594,.30806E-3,.4196E-4,0
SKYSAT-B,2014-037D,2024-01-20T14:38:40.159392,14.83382783,.0004933,98.3422,285.8622,237.2666,122.8071,0,U,40072,999,51549,.29967E-3,.24E-4,0
SKYSAT-C1,2016-040C,2024-01-20T04:24:20.286432,15.30638614,.0006342,97.0862,87.7201,88.5663,271.6305,0,U,41601,999,42336,.47854E-3,.1412E-3,0
SKYSAT-C4,2016-058B,2024-01-20T14:18:44.410176,15.33689889,.0002969,97.0361,75.3404,121.6872,238.4662,0,U,41771,999,41043,.41355E-3,.13408E-3,0
SKYSAT-C5,2016-058C,2024-01-20T03:19:22.584576,15.37730744,.0003401,97.1843,78.8276,49.6252,310.5290,0,U,41772,999,40878,.49336E-3,.18227E-3,0
SKYSAT-C2,2016-058D,2024-01-20T14:29:57.260544,15.30323145,.0003963,97.0381,74.9198,135.7534,224.4025,0,U,41773,999,41039,.44132E-3,.12884E-3,0
SKYSAT-C3,2016-058E,2024-01-20T11:05:18.148704,15.40462699,.000395,97.0375,80.1155,239.1896,120.8963,0,U,41774,999,41073,.50209E-3,.20292E-3,0
SKYSAT-C11,2017-068A,2024-01-20T07:05:19.262112,15.33767632,.0005215,97.3402,146.7967,105.2234,254.9585,0,U,42987,999,34778,.54892E-3,.17875E-3,0
SKYSAT-C10,2017-068B,2024-01-20T07:18:23.651424,15.31159625,.0004636,97.3471,147.5532,220.3095,139.7803,0,U,42988,999,34781,.55135E-3,.16541E-3,0
SKYSAT-C9,2017-068C,2024-01-20T07:39:42.837120,15.32171623,.0022703,97.3407,145.8324,125.5996,234.7365,0,U,42989,999,34798,.54717E-3,.17073E-3,0
SKYSAT-C8,2017-068D,2024-01-20T08:34:20.669952,15.30454761,.0004267,97.3498,147.3876,68.8647,291.3050,0,U,42990,999,34779,.54358E-3,.15953E-3,0
SKYSAT-C7,2017-068E,2024-01-20T07:09:14.721984,15.30801335,.0003709,97.3498,147.6433,135.7119,224.4419,0,U,42991,999,34780,.55655E-3,.16512E-3,0
SKYSAT-C6,2017-068F,2024-01-20T07:49:00.384960,15.30700720,.0006706,97.3525,148.6150,74.1406,286.0574,0,U,42992,999,34784,.52892E-3,.15645E-3,0
SKYSAT-C12,2018-099AR,2024-01-20T03:00:58.262112,15.30005589,.0001387,97.0464,76.5416,214.1073,146.0080,0,U,43797,999,28684,.46905E-3,.13563E-3,0
SKYSAT-C13,2018-099AW,2024-01-20T10:38:37.519584,15.38231391,.0005272,97.0719,80.1689,161.9977,198.1456,0,U,43802,999,28657,.52485E-3,.19723E-3,0
SKYSAT-C14,2020-038BL,2024-01-20T07:34:16.429152,15.55769701,.0010042,52.9808,35.3137,314.4211,45.5976,0,U,45788,999,20510,.71983E-3,.50481E-3,0
SKYSAT-C16,2020-038BM,2024-01-20T05:30:19.431648,15.53363204,.0002079,52.9802,24.0834,20.0331,340.0759,0,U,45789,999,20524,.66173E-3,.42305E-3,0
SKYSAT-C15,2020-038BN,2024-01-20T08:20:53.050272,15.49225557,.0001422,52.9795,40.5141,314.2662,45.8228,0,U,45790,999,20502,.64719E-3,.3561E-3,0
SKYSAT-C17,2020-057BQ,2024-01-20T11:31:09.479712,15.86964684,.0004385,52.9691,95.6606,79.0570,281.0946,0,U,46179,999,19615,.88531E-3,.239309E-2,0
SKYSAT-C19,2020-057BS,2024-01-20T13:43:18.673824,16.07458797,.0006794,52.9635,80.4307,31.6298,328.5140,0,U,46235,999,19507,.89476E-3,.733763E-2,.28923E-3
FLOCK 4V-11,2020-061P,2024-01-20T03:11:14.489376,15.34227890,.0003586,97.3766,92.9393,28.0742,332.0694,0,U,46285,999,18703,.77293E-3,.2559E-3,0
FLOCK 4V-14,2020-061Q,2024-01-20T11:24:56.428704,15.34522225,.0003442,97.3772,93.4246,21.1422,338.9963,0,U,46286,999,18709,.65456E-3,.21851E-3,0
FLOCK 4V-8,2020-061S,2024-01-20T04:05:29.726880,15.34480869,.0003793,97.3763,93.0250,44.3925,315.7622,0,U,46288,999,18695,.85757E-3,.28641E-3,0
FLOCK 4V-10,2020-061AA,2024-01-20T11:22:34.044960,15.34483270,.000183,97.3775,93.6547,46.3594,313.7800,0,U,46296,999,18706,.749E-3,.24991E-3,0
FLOCK 4V-13,2020-061AB,2024-01-20T03:38:40.466400,15.33957555,.000082,97.3769,93.3068,49.5566,310.5748,0,U,46297,999,18699,.72212E-3,.23689E-3,0
FLOCK 4V-1,2020-061AT,2024-01-20T03:26:39.699456,15.52334221,.000132,97.3756,96.1122,317.7129,42.4022,0,U,46313,999,18718,.2041E-2,.125961E-2,0
FLOCK 4V-20,2020-061BJ,2024-01-20T03:30:13.046976,15.36455432,.0002983,97.3368,94.8697,210.2501,149.8571,0,U,46612,999,18169,.57017E-3,.2023E-3,0
FLOCK 4S-22,2021-006AR,2024-01-20T14:39:04.361760,15.39656411,.0007988,97.3619,84.5569,25.0582,335.1050,0,U,47452,999,16606,.16005E-2,.63564E-3,0
