47452,FLOCK 4S-22,2021,93.54,4.0,-,97.36,Inactive,1,LEO,USA,USA,Commercial,Earth Observation,Falcon,1 47452U 21006AR  24020.61046715  .00063564  00000+0  16005-2 0  9996,2 47452  97.3619  84.5569 0007988  25.0582 335.1050 15.39656411166067,15.39656411,0.0007988,LEO
39418,SKYSAT-A,2013,95.77,-1.0,+,97.51,Active,1,LEO,Russia,USA,Commercial,Earth Observation,Dnepr,1 39418U 13066C   24020.16017732  .00004196  00000+0  30806-3 0  9995,2 39418  97.5108  84.9055 0028093  92.0107 268.4336 15.03677684555946,15.03677684,0.0028093,LEO
40072,SKYSAT-B,2014,97.08,90.0,+,98.34,Active,1,LEO,Kazakhstan,USA,Commercial,Earth Observation,Soyuz,1 40072U 14037D   24020.61018703  .00002400  00000+0  29967-3 0  9993,2 40072  98.3422 285.8622 0004933 237.2666 122.8071 14.83382783515499,14.83382783,0.0004933,LEO
41601,SKYSAT-C1,2016,94.08,110.0,+,97.09,Active,1,LEO,India,USA,Commercial,Earth Observation,PSLV,1 41601U 16040C   24020.18356813  .00014120  00000+0  47854-3 0  9994,2 41601  97.0862  87.7201 0006342  88.5663 271.6305 15.30638614423361,15.30638614,0.0006342,LEO
41771,SKYSAT-C4,2016,93.89,110.0,+,97.04,Active,1,LEO,French Guiana,USA,Commercial,Earth Observation,Vega,1 41771U 16058B   24020.59634734  .00013408  00000+0  41355-3 0  9995,2 41771  97.0361  75.3404 0002969 121.6872 238.4662 15.33689889410437,15.33689889,0.0002969,LEO
41772,SKYSAT-C5,2016,93.65,110.0,+,97.18,Active,1,LEO,French Guiana,USA,Commercial,Earth Observation,Vega,1 41772U 16058C   24020.13845584  .00018227  00000+0  49336-3 0  9994,2 41772  97.1843  78.8276 0003401  49.6252 310.5290 15.37730744408787,15.37730744,0.0003401,LEO
41773,SKYSAT-C2,2016,94.1,110.0,+,97.04,Active,1,LEO,French Guiana,USA,Commercial,Earth Observation,Vega,1 41773U 16058D   24020.60413496  .00012884  00000+0  44132-3 0  9992,2 41773  97.0381  74.9198 0003963 135.7534 224.4025 15.30323145410392,15.30323145,0.0003963,LEO
41774,SKYSAT-C3,2016,93.48,110.0,+,97.04,Active,1,LEO,French Guiana,USA,Commercial,Earth Observation,Vega,1 41774U 16058E   24020.46201561  .00020292  00000+0  50209-3 0  9999,2 41774  97.0375  80.1155 0003950 239.1896 120.8963 15.40462699410731,15.40462699,0.000395,LEO
42987,SKYSAT-C11,2017,93.89,110.0,+,97.34,Active,1,LEO,USA,USA,Commercial,Earth Observation,Minotaur,1 42987U 17068A   24020.29536183  .00017875  00000+0  54892-3 0  9995,2 42987  97.3402 146.7967 0005215 105.2234 254.9585 15.33767632347787,15.33767632,0.0005215,LEO
42988,SKYSAT-C10,2017,94.05,110.0,+,97.35,Active,1,LEO,USA,USA,Commercial,Earth Observation,Minotaur,1 42988U 17068B   24020.30444041  .00016541  00000+0  55135-3 0  9999,2 42988  97.3471 147.5532 0004636 220.3095 139.7803 15.31159625347813,15.31159625,0.0004636,LEO
42989,SKYSAT-C9,2017,93.99,110.0,+,97.34,Active,1,LEO,USA,USA,Commercial,Earth Observation,Minotaur,1 42989U 17068C   24020.31924580  .00017073  00000+0  54717-3 0  9998,2 42989  97.3407 145.8324 0022703 125.5996 234.7365 15.32171623347984,15.32171623,0.0022703,LEO
42990,SKYSAT-C8,2017,94.09,110.0,+,97.35,Active,1,LEO,USA,USA,Commercial,Earth Observation,Minotaur,1 42990U 17068D   24020.35718368  .00015953  00000+0  54358-3 0  9995,2 42990  97.3498 147.3876 0004267  68.8647 291.3050 15.30454761347796,15.30454761,0.0004267,LEO
42991,SKYSAT-C7,2017,94.07,110.0,+,97.35,Active,1,LEO,USA,USA,Commercial,Earth Observation,Minotaur,1 42991U 17068E   24020.29808706  .00016512  00000+0  55655-3 0  9998,2 42991  97.3498 147.6433 0003709 135.7119 224.4419 15.30801335347808,15.30801335,0.0003709,LEO
42992,SKYSAT-C6,2017,94.08,110.0,+,97.35,Active,1,LEO,USA,USA,Commercial,Earth Observation,Minotaur,1 42992U 17068F   24020.32569890  .00015645  00000+0  52892-3 0  9997,2 42992  97.3525 148.6150 0006706  74.1406 286.0574 15.30700720347848,15.3070072,0.0006706,LEO
43797,SKYSAT-C12,2018,94.12,100.0,+,97.05,Active,1,LEO,USA,USA,Commercial,Earth Observation,Falcon,1 43797U 18099AR  24020.12567433  .00013563  00000+0  46905-3 0  9990,2 43797  97.0464  76.5416 0001387 214.1073 146.0080 15.30005589286841,15.30005589,0.0001387,LEO
43802,SKYSAT-C13,2018,93.61,100.0,+,97.07,Active,1,LEO,USA,USA,Commercial,Earth Observation,Falcon,1 43802U 18099AW  24020.44348981  .00019723  00000+0  52485-3 0  9991,2 43802  97.0719  80.1689 0005272 161.9977 198.1456 15.38231391286578,15.38231391,0.0005272,LEO
45788,SKYSAT-C14,2020,92.56,100.0,+,52.98,Active,1,LEO,USA,USA,Commercial,Earth Observation,Falcon,1 45788U 20038BL  24020.31546793  .00050481  00000+0  71983-3 0  9999,2 45788  52.9808  35.3137 0010042 314.4211  45.5976 15.55769701205101,15.55769701,0.0010042,LEO
45789,SKYSAT-C16,2020,92.71,100.0,+,52.98,Active,1,LEO,USA,USA,Commercial,Earth Observation,Falcon,1 45789U 20038BM  24020.22939157  .00042305  00000+0  66173-3 0  9991,2 45789  52.9802  24.0834 0002079  20.0331 340.0759 15.53363204205242,15.53363204,0.0002079,LEO
45790,SKYSAT-C15,2020,92.95,100.0,+,52.98,Active,1,LEO,USA,USA,Commercial,Earth Observation,Falcon,1 45790U 20038BN  24020.34783623  .00035610  00000+0  64719-3 0  9996,2 45790  52.9795  40.5141 0001422 314.2662  45.8228 15.49225557205025,15.49225557,0.0001422,LEO
46179,SKYSAT-C17,2020,90.77,110.0,+,52.97,Active,1,LEO,USA,USA,Commercial,Earth Observation,Falcon,1 46179U 20057BQ  24020.47997083  .00239309  00000+0  88531-3 0  9999,2 46179  52.9691  95.6606 0004385  79.0570 281.0946 15.86964684196150,15.86964684,0.0004385,LEO
46235,SKYSAT-C19,2020,89.67,110.0,+,52.96,Active,1,LEO,USA,USA,Commercial,Earth Observation,Falcon,1 46235U 20057BS  24020.57174391  .00733763  28923-3  89476-3 0  9992,2 46235  52.9635  80.4307 0006794  31.6298 328.5140 16.07458797195078,16.07458797,0.0006794,LEO
46285,FLOCK 4V-11,2020,93.86,4.0,+,97.38,Active,1,LEO,French Guiana,USA,Commercial,Earth Observation,Vega,1 46285U 20061P   24020.13280659  .00025590  00000+0  77293-3 0  9997,2 46285  97.3766  92.9393 0003586  28.0742 332.0694 15.34227890187032,15.3422789,0.0003586,LEO
46286,FLOCK 4V-14,2020,93.84,4.0,+,97.38,Active,1,LEO,French Guiana,USA,Commercial,Earth Observation,Vega,1 46286U 20061Q   24020.47565311  .00021851  00000+0  65456-3 0  9990,2 46286  97.3772  93.4246 0003442  21.1422 338.9963 15.34522225187093,15.34522225,0.0003442,LEO
46288,FLOCK 4V-8,2020,93.85,4.0,+,97.38,Active,1,LEO,French Guiana,USA,Commercial,Earth Observation,Vega,1 46288U 20061S   24020.17048295  .00028641  00000+0  85757-3 0  9996,2 46288  97.3763  93.0250 0003793  44.3925 315.7622 15.34480869186956,15.34480869,0.0003793,LEO
46296,FLOCK 4V-10,2020,93.85,4.0,+,97.38,Active,1,LEO,French Guiana,USA,Commercial,Earth Observation,Vega,1 46296U 20061AA  24020.47400515  .00024991  00000+0  74900-3 0  9997,2 46296  97.3775  93.6547 0001830  46.3594 313.7800 15.34483270187065,15.3448327,0.000183,LEO
46297,FLOCK 4V-13,2020,93.88,4.0,+,97.38,Active,1,LEO,French Guiana,USA,Commercial,Earth Observation,Vega,1 46297U 20061AB  24020.15185725  .00023689  00000+0  72212-3 0  9993,2 46297  97.3769  93.3068 0000820  49.5566 310.5748 15.33957555186994,15.33957555,8.2e-05,LEO
46313,FLOCK 4V-1,2020,92.78,4.0,+,97.38,Active,1,LEO,French Guiana,USA,Commercial,Earth Observation,Vega,1 46313U 20061AT  24020.14351504  .00125961  00000+0  20410-2 0  9999,2 46313  97.3756  96.1122 0001320 317.7129  42.4022 15.52334221187180,15.52334221,0.000132,LEO
46612,FLOCK 4V-20,2020,93.72,-1.0,+,97.34,Active,0,LEO,French Guiana,USA,Unknown,Unknown,Vega,1 46612U 20061BJ  24020.14598434  .00020230  00000+0  57017-3 0  9993,2 46612  97.3368  94.8697 0002983 210.2501 149.8571 15.36455432181691,15.36455432,0.0002983,LEO
